0 SL-16 DEB
1 28354U 04021C   13280.85216280 -.00000001  00000-0  40909-4 0  4819
2 28354 070.9579 176.9992 0223800 003.1542 060.4453 13.67935300465356
0 SL-16 DEB
1 28354U 04021C   13283.13694417  .00000036  00000-0  77544-4 0  4828
2 28354 070.9576 172.5514 0223925 359.9566 152.0067 13.67935486465669
0 SL-16 DEB
1 28354U 04021C   13285.67128394  .00000056  00000-0  98152-4 0  4836
2 28354 070.9572 167.6179 0224049 356.4254 032.5218 13.67935684466011
0 SL-16 DEB
1 28354U 04021C   13287.81190850  .00000065  00000-0  10628-3 0  4842
2 28354 070.9568 163.4508 0224155 353.4460 134.1601 13.67936193466303
0 SL-16 DEB
1 28354U 04021C   13289.84875705  .00000054  00000-0  96282-4 0  4856
2 28354 070.9564 159.4856 0224244 350.6020 084.7599 13.67936881466580
0 SL-16 DEB
1 28354U 04021C   13292.04913780  .00000032  00000-0  74499-4 0  4861
2 28354 070.9562 155.2016 0224356 347.5303 120.6890 13.67937439466880
0 SL-16 DEB
1 28354U 04021C   13294.10998362  .00000027  00000-0  68924-4 0  4870
2 28354 070.9562 151.1893 0224444 344.6595 189.4672 13.67937962467161
